CCSDS_OMM_VERS = 2.0
CREATION_DATE  = 
ORIGINATOR     = 

OBJECT_NAME    = STARLINK-35972
OBJECT_ID      = 2025-271X
CENTER_NAME    = EARTH
REF_FRAME      = TEME
TIME_SYSTEM    = UTC
MEAN_ELEMENT_THEORY = SGP/SGP4

EPOCH          = 2025-12-05T18:04:43.948416
MEAN_MOTION    = 15.82715807
ECCENTRICITY   = .00275957
INCLINATION    = 53.1545
RA_OF_ASC_NODE = 221.3153
ARG_OF_PERICENTER = 284.8234
MEAN_ANOMALY   = 74.9733

EPHEMERIS_TYPE = 0
CLASSIFICATION_TYPE = U
NORAD_CAT_ID   = 66638
ELEMENT_SET_NO = 999
REV_AT_EPOCH   = 311
BSTAR          = .37191538E-1
MEAN_MOTION_DOT = .10180573E+0
MEAN_MOTION_DDOT = 0

CCSDS_OMM_VERS = 2.0
CREATION_DATE  = 
ORIGINATOR     = 

OBJECT_NAME    = STARLINK-35908
OBJECT_ID      = 2025-271Y
CENTER_NAME    = EARTH
REF_FRAME      = TEME
TIME_SYSTEM    = UTC
MEAN_ELEMENT_THEORY = SGP/SGP4

EPOCH          = 2025-12-05T11:59:44.655360
MEAN_MOTION    = 15.77183711
ECCENTRICITY   = .00017382
INCLINATION    = 53.1551
RA_OF_ASC_NODE = 222.5773
ARG_OF_PERICENTER = 180.4844
MEAN_ANOMALY   = 179.6176

EPHEMERIS_TYPE = 0
CLASSIFICATION_TYPE = U
NORAD_CAT_ID   = 66639
ELEMENT_SET_NO = 999
REV_AT_EPOCH   = 307
BSTAR          = -.28964926E-2
MEAN_MOTION_DOT = -.459293E-2
MEAN_MOTION_DDOT = 0

CCSDS_OMM_VERS = 2.0
CREATION_DATE  = 
ORIGINATOR     = 

OBJECT_NAME    = STARLINK-35921
OBJECT_ID      = 2025-271Z
CENTER_NAME    = EARTH
REF_FRAME      = TEME
TIME_SYSTEM    = UTC
MEAN_ELEMENT_THEORY = SGP/SGP4

EPOCH          = 2025-12-04T07:07:23.950272
MEAN_MOTION    = 15.81318878
ECCENTRICITY   = .0004963
INCLINATION    = 53.1562
RA_OF_ASC_NODE = 228.5854
ARG_OF_PERICENTER = 9.2257
MEAN_ANOMALY   = 350.8856

EPHEMERIS_TYPE = 0
CLASSIFICATION_TYPE = U
NORAD_CAT_ID   = 66640
ELEMENT_SET_NO = 999
REV_AT_EPOCH   = 288
BSTAR          = .15698E-2
MEAN_MOTION_DOT = .327985E-2
MEAN_MOTION_DDOT = 0

CCSDS_OMM_VERS = 2.0
CREATION_DATE  = 
ORIGINATOR     = 

OBJECT_NAME    = STARLINK-35923
OBJECT_ID      = 2025-271AA
CENTER_NAME    = EARTH
REF_FRAME      = TEME
TIME_SYSTEM    = UTC
MEAN_ELEMENT_THEORY = SGP/SGP4

EPOCH          = 2025-12-05T18:02:23.696160
MEAN_MOTION    = 15.75239951
ECCENTRICITY   = .00018448
INCLINATION    = 53.1552
RA_OF_ASC_NODE = 221.3030
ARG_OF_PERICENTER = 131.9458
MEAN_ANOMALY   = 228.1720

EPHEMERIS_TYPE = 0
CLASSIFICATION_TYPE = U
NORAD_CAT_ID   = 66641
ELEMENT_SET_NO = 999
REV_AT_EPOCH   = 311
BSTAR          = -.58054904E-2
MEAN_MOTION_DOT = -.810132E-2
MEAN_MOTION_DDOT = 0

CCSDS_OMM_VERS = 2.0
CREATION_DATE  = 
ORIGINATOR     = 

OBJECT_NAME    = STARLINK-35926
OBJECT_ID      = 2025-271AB
CENTER_NAME    = EARTH
REF_FRAME      = TEME
TIME_SYSTEM    = UTC
MEAN_ELEMENT_THEORY = SGP/SGP4

EPOCH          = 2025-12-05T22:36:37.289664
MEAN_MOTION    = 15.76490267
ECCENTRICITY   = .0010211
INCLINATION    = 53.1553
RA_OF_ASC_NODE = 220.3580
ARG_OF_PERICENTER = 180.2344
MEAN_ANOMALY   = 179.8674

EPHEMERIS_TYPE = 0
CLASSIFICATION_TYPE = U
NORAD_CAT_ID   = 66642
ELEMENT_SET_NO = 999
REV_AT_EPOCH   = 310
BSTAR          = .23645736E-2
MEAN_MOTION_DOT = .401821E-2
MEAN_MOTION_DDOT = 0

CCSDS_OMM_VERS = 2.0
CREATION_DATE  = 
ORIGINATOR     = 

OBJECT_NAME    = STARLINK-35918
OBJECT_ID      = 2025-271AC
CENTER_NAME    = EARTH
REF_FRAME      = TEME
TIME_SYSTEM    = UTC
MEAN_ELEMENT_THEORY = SGP/SGP4

EPOCH          = 2025-12-05T22:38:03.585984
MEAN_MOTION    = 15.74865088
ECCENTRICITY   = .00032739
INCLINATION    = 53.1566
RA_OF_ASC_NODE = 220.3651
ARG_OF_PERICENTER = 158.4057
MEAN_ANOMALY   = 201.7102

EPHEMERIS_TYPE = 0
CLASSIFICATION_TYPE = U
NORAD_CAT_ID   = 66643
ELEMENT_SET_NO = 999
REV_AT_EPOCH   = 314
BSTAR          = -.15889319E-1
MEAN_MOTION_DOT = -.210596E-1
MEAN_MOTION_DDOT = 0

CCSDS_OMM_VERS = 2.0
CREATION_DATE  = 
ORIGINATOR     = 

OBJECT_NAME    = STARLINK-35938
OBJECT_ID      = 2025-271AD
CENTER_NAME    = EARTH
REF_FRAME      = TEME
TIME_SYSTEM    = UTC
MEAN_ELEMENT_THEORY = SGP/SGP4

EPOCH          = 2025-12-05T21:05:43.198944
MEAN_MOTION    = 15.77955429
ECCENTRICITY   = .00038958
INCLINATION    = 53.1554
RA_OF_ASC_NODE = 220.6747
ARG_OF_PERICENTER = 298.3926
MEAN_ANOMALY   = 61.6703

EPHEMERIS_TYPE = 0
CLASSIFICATION_TYPE = U
NORAD_CAT_ID   = 66644
ELEMENT_SET_NO = 999
REV_AT_EPOCH   = 313
BSTAR          = .21399691E-1
MEAN_MOTION_DOT = .4361118E-1
MEAN_MOTION_DDOT = 0

CCSDS_OMM_VERS = 2.0
CREATION_DATE  = 
ORIGINATOR     = 

OBJECT_NAME    = SHENZHOU-22
OBJECT_ID      = 2025-272A
CENTER_NAME    = EARTH
REF_FRAME      = TEME
TIME_SYSTEM    = UTC
MEAN_ELEMENT_THEORY = SGP/SGP4

EPOCH          = 2025-12-05T22:10:41.358720
MEAN_MOTION    = 15.58760067
ECCENTRICITY   = .00096689
INCLINATION    = 41.4683
RA_OF_ASC_NODE = 58.0720
ARG_OF_PERICENTER = 337.6224
MEAN_ANOMALY   = 22.4191

EPHEMERIS_TYPE = 0
CLASSIFICATION_TYPE = U
NORAD_CAT_ID   = 66645
ELEMENT_SET_NO = 999
REV_AT_EPOCH   = 26299
BSTAR          = .39600638E-3
MEAN_MOTION_DOT = .31271E-3
MEAN_MOTION_DDOT = 0

CCSDS_OMM_VERS = 2.0
CREATION_DATE  = 
ORIGINATOR     = 

OBJECT_NAME    = CZ-2F R/B
OBJECT_ID      = 2025-272B
CENTER_NAME    = EARTH
REF_FRAME      = TEME
TIME_SYSTEM    = UTC
MEAN_ELEMENT_THEORY = SGP/SGP4

EPOCH          = 2025-12-05T15:30:36.919296
MEAN_MOTION    = 16.25262576
ECCENTRICITY   = .00544848
INCLINATION    = 41.4567
RA_OF_ASC_NODE = 54.8075
ARG_OF_PERICENTER = 209.5020
MEAN_ANOMALY   = 150.2763

EPHEMERIS_TYPE = 0
CLASSIFICATION_TYPE = U
NORAD_CAT_ID   = 66646
ELEMENT_SET_NO = 999
REV_AT_EPOCH   = 169
BSTAR          = .57718843E-3
MEAN_MOTION_DOT = .2719338E-1
MEAN_MOTION_DDOT = .7738456E-5

CCSDS_OMM_VERS = 2.0
CREATION_DATE  = 
ORIGINATOR     = 

OBJECT_NAME    = COSMOS 2597 (RODNIK-S 22)
OBJECT_ID      = 2025-273A
CENTER_NAME    = EARTH
REF_FRAME      = TEME
TIME_SYSTEM    = UTC
MEAN_ELEMENT_THEORY = SGP/SGP4

EPOCH          = 2025-12-05T22:45:52.620480
MEAN_MOTION    = 12.41951127
ECCENTRICITY   = .00080474
INCLINATION    = 82.4979
RA_OF_ASC_NODE = 290.6665
ARG_OF_PERICENTER = 305.2495
MEAN_ANOMALY   = 54.7830

EPHEMERIS_TYPE = 0
CLASSIFICATION_TYPE = U
NORAD_CAT_ID   = 66647
ELEMENT_SET_NO = 999
REV_AT_EPOCH   = 129
BSTAR          = .24309571E-4
MEAN_MOTION_DOT = .13E-6
MEAN_MOTION_DDOT = 0

CCSDS_OMM_VERS = 2.0
CREATION_DATE  = 
ORIGINATOR     = 

OBJECT_NAME    = COSMOS 2598 (RODNIK-S 23)
OBJECT_ID      = 2025-273B
CENTER_NAME    = EARTH
REF_FRAME      = TEME
TIME_SYSTEM    = UTC
MEAN_ELEMENT_THEORY = SGP/SGP4

EPOCH          = 2025-12-05T22:42:15.560352
MEAN_MOTION    = 12.42257804
ECCENTRICITY   = .0007951
INCLINATION    = 82.5021
RA_OF_ASC_NODE = 290.6739
ARG_OF_PERICENTER = 291.8823
MEAN_ANOMALY   = 68.1411

EPHEMERIS_TYPE = 0
CLASSIFICATION_TYPE = U
NORAD_CAT_ID   = 66648
ELEMENT_SET_NO = 999
REV_AT_EPOCH   = 129
BSTAR          = -.58823389E-4
MEAN_MOTION_DOT = .2E-7
MEAN_MOTION_DDOT = 0

CCSDS_OMM_VERS = 2.0
CREATION_DATE  = 
ORIGINATOR     = 

OBJECT_NAME    = COSMOS 2599 (RODNIK-S 24)
OBJECT_ID      = 2025-273C
CENTER_NAME    = EARTH
REF_FRAME      = TEME
TIME_SYSTEM    = UTC
MEAN_ELEMENT_THEORY = SGP/SGP4

EPOCH          = 2025-12-05T22:49:12.816192
MEAN_MOTION    = 12.41671779
ECCENTRICITY   = .00082757
INCLINATION    = 82.5020
RA_OF_ASC_NODE = 290.6778
ARG_OF_PERICENTER = 315.6119
MEAN_ANOMALY   = 44.4295

EPHEMERIS_TYPE = 0
CLASSIFICATION_TYPE = U
NORAD_CAT_ID   = 66649
ELEMENT_SET_NO = 999
REV_AT_EPOCH   = 129
BSTAR          = -.89048691E-4
MEAN_MOTION_DOT = -.2E-7
MEAN_MOTION_DDOT = 0

