STARLINK-35972          
1 66638U 25271X   25339.75328644  .10180573  00000+0  37192-1 0  9994
2 66638  53.1545 221.3153 0027595 284.8234  74.9733 15.82715807  3112
STARLINK-35908          
1 66639U 25271Y   25339.49982240 -.00459293  00000+0 -28965-2 0  9992
2 66639  53.1551 222.5773 0001738 180.4844 179.6176 15.77183711  3076
STARLINK-35921          
1 66640U 25271Z   25338.29680498  .00327985  00000+0  15698-2 0  9990
2 66640  53.1562 228.5854 0004963   9.2257 350.8856 15.81318878  2880
STARLINK-35923          
1 66641U 25271AA  25339.75166315 -.00810132  00000+0 -58055-2 0  9997
2 66641  53.1552 221.3030 0001844 131.9458 228.1720 15.75239951  3119
STARLINK-35926          
1 66642U 25271AB  25339.94209826  .00401821  00000+0  23646-2 0  9991
2 66642  53.1553 220.3580 0010211 180.2344 179.8674 15.76490267  3108
STARLINK-35918          
1 66643U 25271AC  25339.94309706 -.02105960  00000+0 -15889-1 0  9998
2 66643  53.1566 220.3651 0003273 158.4057 201.7102 15.74865088  3140
STARLINK-35938          
1 66644U 25271AD  25339.87897221  .04361118  00000+0  21400-1 0  9990
2 66644  53.1554 220.6747 0003895 298.3926  61.6703 15.77955429  3137
SHENZHOU-22             
1 66645U 25272A   25339.92408980  .00031271  00000+0  39601-3 0  9992
2 66645  41.4683  58.0720 0009668 337.6224  22.4191 15.58760067262995
CZ-2F R/B               
1 66646U 25272B   25339.64626064  .02719338  77385-5  57719-3 0  9992
2 66646  41.4567  54.8075 0054484 209.5020 150.2763 16.25262576  1691
COSMOS 2597 (RODNIK-S *)
1 66647U 25273A   25339.94852570  .00000013  00000+0  24310-4 0  9997
2 66647  82.4979 290.6665 0008047 305.2495  54.7830 12.41951127  1293
COSMOS 2598 (RODNIK-S *)
1 66648U 25273B   25339.94601343  .00000002  00000+0 -58823-4 0  9993
2 66648  82.5021 290.6739 0007951 291.8823  68.1411 12.42257804  1299
COSMOS 2599 (RODNIK-S *)
1 66649U 25273C   25339.95084278 -.00000002  00000+0 -89049-4 0  9992
2 66649  82.5020 290.6778 0008275 315.6119  44.4295 12.41671779  1292
